EUTELSAT 21B            
1 38992U 12062B   25365.32658943  .00000146  00000+0  00000+0 0  9992
2 38992   0.0647   3.6953 0003211 284.0823 311.3947  1.00273903 48140
EUTELSAT 70B            
1 39020U 12069A   25365.47895043 -.00000028  00000+0  00000+0 0  9992
2 39020   0.0605   2.5155 0003943 258.2977  82.2449  1.00271334 47825
EUTELSAT 117 WEST A     
1 39122U 13012A   25365.52881600  .00000003  00000+0  00000+0 0  9996
2 39122   0.0110  10.9764 0003125 273.8654 248.9217  1.00271160 46757
EUTELSAT 7B             
1 39163U 13022A   25365.39488322  .00000064  00000+0  00000+0 0  9998
2 39163   0.0668 346.1846 0005202 336.9939 286.0493  1.00270427 46260
EXPRESS-AT1             
1 39612U 14010A   25365.17405959  .00000096  00000+0  00000+0 0  9991
2 39612   0.0155 332.8910 0000364 240.5228   5.0927  1.00268913 43130
EXPRESS-AT2             
1 39613U 14010B   25365.42131671 -.00000265  00000+0  00000+0 0  9996
2 39613   0.0160 302.8722 0001848 327.3525 121.3903  1.00271270 42817
EUTELSAT 3B             
1 39773U 14030A   25365.39418987  .00000036  00000+0  00000+0 0  9994
2 39773   0.0600   5.2355 0004316 235.5957   4.2229  1.00271029 42385
EUTELSAT 115 WEST B     
1 40425U 15010B   25365.52693993 -.00000010  00000+0  00000+0 0  9999
2 40425   0.0226 181.5301 0000214 264.0081  89.4586  1.00276459 39718
